{"type": "FeatureCollection", "features": [ {"type": "Feature", "properties": {"norad_id": 36203, "name": "FENGYUN 1C DEB", "group": "fengyun-1c-debris", "lat": 45.379244025636325, "lon": 120.32598616758307, "alt_km": 573.6428230232086, "timestamp": "2025-12-13T03:42:11.560984+00:00", "meta": {"OBJECT_NAME": "FENGYUN 1C DEB", "OBJECT_ID": "1999-025DUC", "EPOCH": "2025-12-08T14:16:01.371648", "MEAN_MOTION": 14.78297245, "ECCENTRICITY": 0.0083233, "INCLINATION": 99.0964, "RA_OF_ASC_NODE": 285.836, "ARG_OF_PERICENTER": 161.4127, "MEAN_ANOMALY": 199.0151, "EPHEMERIS_TYPE": 0, "CLASSIFICATION_TYPE": "U", "NORAD_CAT_ID": 36203, "ELEMENT_SET_NO": 999, "REV_AT_EPOCH": 63368, "BSTAR": 0.0016876, "MEAN_MOTION_DOT": 0.00012947, "MEAN_MOTION_DDOT": 0}, "tle": {"line1": "1 36203U 99025DUC 25342.59446032  .00012947  00000+0  16876-2 0  9990", "line2": "2 36203  99.0964 285.8360 0083233 161.4127 199.0151 14.78297245633687"}}, "geometry": {"type": "Point", "coordinates": [120.32598616758307, 45.379244025636325]}}, {"type": "Feature", "properties": {"norad_id": 36204, "name": "FENGYUN 1C DEB", "group": "fengyun-1c-debris", "lat": -20.74561211081622, "lon": -99.29197866494488, "alt_km": 770.5667136859893, "timestamp": "2025-12-13T03:42:11.560993+00:00", "meta": {"OBJECT_NAME": "FENGYUN 1C DEB", "OBJECT_ID": "1999-025DUD", "EPOCH": "2025-12-09T13:24:01.015776", "MEAN_MOTION": 14.34542102, "ECCENTRICITY": 0.002004, "INCLINATION": 99.2908, "RA_OF_ASC_NODE": 80.3994, "ARG_OF_PERICENTER": 171.7637, "MEAN_ANOMALY": 188.3878, "EPHEMERIS_TYPE": 0, "CLASSIFICATION_TYPE": "U", "NORAD_CAT_ID": 36204, "ELEMENT_SET_NO": 999, "REV_AT_EPOCH": 94382, "BSTAR": 0.0020121, "MEAN_MOTION_DOT": 5.645e-05, "MEAN_MOTION_DDOT": 0}, "tle": {"line1": "1 36204U 99025DUD 25343.55834509  .00005645  00000+0  20121-2 0  9993", "line2": "2 36204  99.2908  80.3994 0020040 171.7637 188.3878 14.34542102943820"}}, "geometry": {"type": "Point", "coordinates": [-99.29197866494488, -20.74561211081622]}}, {"type": "Feature", "properties": {"norad_id": 36206, "name": "FENGYUN 1C DEB", "group": "fengyun-1c-debris", "lat": -16.71306598726379, "lon": -172.27739151151573, "alt_km": 846.7689115843359, "timestamp": "2025-12-13T03:42:11.561003+00:00", "meta": {"OBJECT_NAME": "FENGYUN 1C DEB", "OBJECT_ID": "1999-025DUF", "EPOCH": "2025-12-11T06:51:40.714560", "MEAN_MOTION": 14.21576119, "ECCENTRICITY": 0.00304934, "INCLINATION": 98.4793, "RA_OF_ASC_NODE": 8.4949, "ARG_OF_PERICENTER": 23.5973, "MEAN_ANOMALY": 336.6597, "EPHEMERIS_TYPE": 0, "CLASSIFICATION_TYPE": "U", "NORAD_CAT_ID": 36206, "ELEMENT_SET_NO": 999, "REV_AT_EPOCH": 64400, "BSTAR": 0.0010033994, "MEAN_MOTION_DOT": 2.168e-05, "MEAN_MOTION_DDOT": 0}, "tle": {"line1": "1 36206U 99025DUF 25345.28588790  .00002168  00000+0  10034-2 0  9994", "line2": "2 36206  98.4793   8.4949 0030493  23.5973 336.6597 14.21576119644001"}}, "geometry": {"type": "Point", "coordinates": [-172.27739151151573, -16.71306598726379]}}, {"type": "Feature", "properties": {"norad_id": 36211, "name": "FENGYUN 1C DEB", "group": "fengyun-1c-debris", "lat": -14.02814967789009, "lon": -17.549415423249805, "alt_km": 896.4591496535159, "timestamp": "2025-12-13T03:42:11.561013+00:00", "meta": {"OBJECT_NAME": "FENGYUN 1C DEB", "OBJECT_ID": "1999-025DUL", "EPOCH": "2025-12-12T05:52:45.045984", "MEAN_MOTION": 14.2599064, "ECCENTRICITY": 0.02665534, "INCLINATION": 98.5055, "RA_OF_ASC_NODE": 339.424, "ARG_OF_PERICENTER": 230.3031, "MEAN_ANOMALY": 127.4375, "EPHEMERIS_TYPE": 0, "CLASSIFICATION_TYPE": "U", "NORAD_CAT_ID": 36211, "ELEMENT_SET_NO": 999, "REV_AT_EPOCH": 94362, "BSTAR": 0.00079042228, "MEAN_MOTION_DOT": 2.691e-05, "MEAN_MOTION_DDOT": 0}, "tle": {"line1": "1 36211U 99025DUL 25346.24496581  .00002691  00000+0  79042-3 0  9999", "line2": "2 36211  98.5055 339.4240 0266553 230.3031 127.4375 14.25990640943624"}}, "geometry": {"type": "Point", "coordinates": [-17.549415423249805, -14.02814967789009]}}, {"type": "Feature", "properties": {"norad_id": 36216, "name": "FENGYUN 1C DEB", "group": "fengyun-1c-debris", "lat": -16.661804076100594, "lon": 9.948606642764307, "alt_km": 806.8307613573388, "timestamp": "2025-12-13T03:42:11.561024+00:00", "meta": {"OBJECT_NAME": "FENGYUN 1C DEB", "OBJECT_ID": "1999-025DUR", "EPOCH": "2025-12-09T18:32:38.416704", "MEAN_MOTION": 14.18849305, "ECCENTRICITY": 0.00451569, "INCLINATION": 98.6092, "RA_OF_ASC_NODE": 4.0664, "ARG_OF_PERICENTER": 26.4592, "MEAN_ANOMALY": 333.8876, "EPHEMERIS_TYPE": 0, "CLASSIFICATION_TYPE": "U", "NORAD_CAT_ID": 36216, "ELEMENT_SET_NO": 999, "REV_AT_EPOCH": 64330, "BSTAR": 0.00051766748, "MEAN_MOTION_DOT": 1.046e-05, "MEAN_MOTION_DDOT": 0}, "tle": {"line1": "1 36216U 99025DUR 25343.77266686  .00001046  00000+0  51767-3 0  9997", "line2": "2 36216  98.6092   4.0664 0045156  26.4592 333.8876 14.18849305643300"}}, "geometry": {"type": "Point", "coordinates": [9.948606642764307, -16.661804076100594]}}, {"type": "Feature", "properties": {"norad_id": 36218, "name": "FENGYUN 1C DEB", "group": "fengyun-1c-debris", "lat": -35.30479994337688, "lon": -165.29370607846462, "alt_km": 619.538088200361, "timestamp": "2025-12-13T03:42:11.561034+00:00", "meta": {"OBJECT_NAME": "FENGYUN 1C DEB", "OBJECT_ID": "1999-025DUT", "EPOCH": "2025-12-09T06:48:31.768992", "MEAN_MOTION": 14.70907849, "ECCENTRICITY": 0.0073054, "INCLINATION": 99.0767, "RA_OF_ASC_NODE": 183.8976, "ARG_OF_PERICENTER": 306.3851, "MEAN_ANOMALY": 53.0628, "EPHEMERIS_TYPE": 0, "CLASSIFICATION_TYPE": "U", "NORAD_CAT_ID": 36218, "ELEMENT_SET_NO": 999, "REV_AT_EPOCH": 59092, "BSTAR": 0.0015375, "MEAN_MOTION_DOT": 9.758e-05, "MEAN_MOTION_DDOT": 0}, "tle": {"line1": "1 36218U 99025DUT 25343.28370103  .00009758  00000+0  15375-2 0  9997", "line2": "2 36218  99.0767 183.8976 0073054 306.3851  53.0628 14.70907849590925"}}, "geometry": {"type": "Point", "coordinates": [-165.29370607846462, -35.30479994337688]}}, {"type": "Feature", "properties": {"norad_id": 36224, "name": "FENGYUN 1C DEB", "group": "fengyun-1c-debris", "lat": -29.408076494347007, "lon": -150.51476813068385, "alt_km": 919.9810823617627, "timestamp": "2025-12-13T03:42:11.561043+00:00", "meta": {"OBJECT_NAME": "FENGYUN 1C DEB", "OBJECT_ID": "1999-025DUZ", "EPOCH": "2025-12-10T20:19:03.114048", "MEAN_MOTION": 14.1276103, "ECCENTRICITY": 0.0114684, "INCLINATION": 98.7804, "RA_OF_ASC_NODE": 32.2203, "ARG_OF_PERICENTER": 357.4017, "MEAN_ANOMALY": 2.6546, "EPHEMERIS_TYPE": 0, "CLASSIFICATION_TYPE": "U", "NORAD_CAT_ID": 36224, "ELEMENT_SET_NO": 999, "REV_AT_EPOCH": 64405, "BSTAR": 0.00016786, "MEAN_MOTION_DOT": 2.88e-06, "MEAN_MOTION_DDOT": 0}, "tle": {"line1": "1 36224U 99025DUZ 25344.84656382  .00000288  00000+0  16786-3 0  9990", "line2": "2 36224  98.7804  32.2203 0114684 357.4017   2.6546 14.12761030644055"}}, "geometry": {"type": "Point", "coordinates": [-150.51476813068385, -29.408076494347007]}}, {"type": "Feature", "properties": {"norad_id": 36225, "name": "FENGYUN 1C DEB", "group": "fengyun-1c-debris", "lat": 67.57064156468986, "lon": -49.29354938742762, "alt_km": 571.6561880578047, "timestamp": "2025-12-13T03:42:11.561053+00:00", "meta": {"OBJECT_NAME": "FENGYUN 1C DEB", "OBJECT_ID": "1999-025DVA", "EPOCH": "2025-12-11T03:22:25.516704", "MEAN_MOTION": 15.05886228, "ECCENTRICITY": 0.00436396, "INCLINATION": 98.8181, "RA_OF_ASC_NODE": 106.3139, "ARG_OF_PERICENTER": 296.8088, "MEAN_ANOMALY": 62.8675, "EPHEMERIS_TYPE": 0, "CLASSIFICATION_TYPE": "U", "NORAD_CAT_ID": 36225, "ELEMENT_SET_NO": 999, "REV_AT_EPOCH": 66748, "BSTAR": 0.0037986718, "MEAN_MOTION_DOT": 0.00056719, "MEAN_MOTION_DDOT": 0}, "tle": {"line1": "1 36225U 99025DVA 25345.14057311  .00056719  00000+0  37987-2 0  9997", "line2": "2 36225  98.8181 106.3139 0043639 296.8088  62.8675 15.05886228667484"}}, "geometry": {"type": "Point", "coordinates": [-49.29354938742762, 67.57064156468986]}}, {"type": "Feature", "properties": {"norad_id": 36226, "name": "FENGYUN 1C DEB", "group": "fengyun-1c-debris", "lat": -0.010774337876009335, "lon": 29.645314094331017, "alt_km": 795.8136171208753, "timestamp": "2025-12-13T03:42:11.561063+00:00", "meta": {"OBJECT_NAME": "FENGYUN 1C DEB", "OBJECT_ID": "1999-025DVB", "EPOCH": "2025-12-05T08:24:08.459424", "MEAN_MOTION": 14.10238341, "ECCENTRICITY": 0.00958599, "INCLINATION": 98.6088, "RA_OF_ASC_NODE": 22.1717, "ARG_OF_PERICENTER": 41.8631, "MEAN_ANOMALY": 318.982, "EPHEMERIS_TYPE": 0, "CLASSIFICATION_TYPE": "U", "NORAD_CAT_ID": 36226, "ELEMENT_SET_NO": 999, "REV_AT_EPOCH": 63658, "BSTAR": 0.0024391454, "MEAN_MOTION_DOT": 4.471e-05, "MEAN_MOTION_DDOT": 0}, "tle": {"line1": "1 36226U 99025DVB 25339.35009791  .00004471  00000+0  24391-2 0  9996", "line2": "2 36226  98.6088  22.1717 0095859  41.8631 318.9820 14.10238341636585"}}, "geometry": {"type": "Point", "coordinates": [29.645314094331017, -0.010774337876009335]}}, {"type": "Feature", "properties": {"norad_id": 36229, "name": "FENGYUN 1C DEB", "group": "fengyun-1c-debris", "lat": 55.582759138847486, "lon": 43.38274542401751, "alt_km": 789.275834746938, "timestamp": "2025-12-13T03:42:11.561073+00:00", "meta": {"OBJECT_NAME": "FENGYUN 1C DEB", "OBJECT_ID": "1999-025DVE", "EPOCH": "2025-12-10T20:31:15.732480", "MEAN_MOTION": 14.07174433, "ECCENTRICITY": 0.01025458, "INCLINATION": 100.925, "RA_OF_ASC_NODE": 204.236, "ARG_OF_PERICENTER": 127.5595, "MEAN_ANOMALY": 233.4936, "EPHEMERIS_TYPE": 0, "CLASSIFICATION_TYPE": "U", "NORAD_CAT_ID": 36229, "ELEMENT_SET_NO": 999, "REV_AT_EPOCH": 63229, "BSTAR": 0.0021853146, "MEAN_MOTION_DOT": 3.782e-05, "MEAN_MOTION_DDOT": 0}, "tle": {"line1": "1 36229U 99025DVE 25344.85504320  .00003782  00000+0  21853-2 0  9992", "line2": "2 36229 100.9250 204.2360 0102545 127.5595 233.4936 14.07174433632295"}}, "geometry": {"type": "Point", "coordinates": [43.38274542401751, 55.582759138847486]}}]}